name,address,Is Early Voting,Precincts (Or Locality-wide),Is Drop Off,lon,lat,V11
ALDRIN ELEMENTARY SCHOOL,"11375 CENTER HARBOR RD RESTON, VA 20194-2061",False,234 - ALDRIN - 0000,False,-77.33778,38.97911,
ANNANDALE TERRACE ELEM SCHOOL,"7604 HERALD ST ANNANDALE, VA 22003-5432",False,504 - BRISTOW - 0000,False,-77.20851,38.8275,
ANTIOCH BAPTIST CHURCH,"6531 LITTLE OX ROAD FAIRFAX STATION, VA 22039",False,815 - WOODYARD - 0000,False,-77.32046,38.77753,
ARMSTRONG ELEMENTARY SCHOOL,"11900 LAKE NEWPORT RD RESTON, VA 20194-1542",False,201 - Armstrong - 0000,False,-77.35846,38.98013,
ARMSTRONG ELEMENTARY SCHOOL,"11900 LAKE NEWPORT RD RESTON, VA 20194-1542",False,236 - STUART - 0000,False,-77.35846,38.98013,
"Annandale Fire Station, Co #8","7128 COLUMBIA PIKE ANNANDALE, VA 22003",False,518 - COLUMBIA - 0000,False,-77.19192,38.8327,
BAILEY'S COMMUNITY CENTER,"5920 SUMMERS LN FALLS CHURCH, VA 22041-1634",False,"501 - BAILEYS - 0000, 501 - BAILEYS - 0001",False,-77.1362,38.84274,
BEECH TREE ELEM SCHOOL,"3401 BEECHTREE LN FALLS CHURCH, VA 22042-4005",False,512 - SLEEPY HOLLOW - 0000,False,-77.18114,38.85288,
BELVEDERE ELEM SCHOOL,"6540 COLUMBIA PIKE FALLS CHURCH, VA 22041-1127",False,503 - BELVEDERE - 0000,False,-77.16856,38.83831,
BETHLEHEM LUTHERAN CHURCH,"8922 LITTLE RIVER TPKE FAIRFAX, VA 22031-3123",False,528 - RIDGELEA - 0000,False,-77.2525,38.83954,
BONNIE BRAE ELEMENTARY SCHOOL,"5420 SIDEBURN RD FAIRFAX, VA 22032-3716",False,126 - BONNIE BRAE - 0000,False,-77.31038,38.80343,
BRADDOCK ELEMENTARY SCHOOL,"7825 HERITAGE DR ANNANDALE, VA 22003-5312",False,106 - HERITAGE - 0000,False,-77.21531,38.82274,
BREN MAR PARK ELEM SCHOOL,"6344 BERYL RD ALEXANDRIA, VA 22312-6306",False,526 - BREN MAR - 0000,False,-77.15741,38.80218,
BROOKFIELD ELEMENTARY SCHOOL,"4200 LEES CORNER RD CHANTILLY, VA 20151-2826",False,902 - BROOKFIELD - 0000,False,-77.41913,38.88273,
BRYANT CENTER,"2709 POPKINS LN ALEXANDRIA, VA 22306-1819",False,604 - BUCKNELL - 0000,False,-77.0801,38.76411,
BULL RUN ELEM SCHOOL,"15301 LEE HWY CENTREVILLE, VA 20121-2126",False,923 - BULL RUN - 0000,False,-77.47566,38.82863,
BURKE COMMUNITY CHURCH,"9900 OLD KEENE MILL RD BURKE, VA 22015-3903",False,842 - PARKWAY - 0000,False,-77.28837,38.77083,
BUSH HILL ELEMENTRY SCHOOL,"5927 WESTCHESTER ST ALEXANDRIA, VA 22310-1122",False,401 - BUSH HILL - 0000,False,-77.12362,38.79037,
Bailey's Elementary School,"6111 KNOLLWOOD DR FALLS CHURCH, VA 22031",False,530 - HOLMES #2 - 0000,False,-77.14528,38.85197,
Belle View Elementary School,"6701 FT HUNT RD ALEXANDRIA, VA 22307",False,602 - BELLEVIEW - 0000,False,-77.06098,38.77181,
CAMELOT ELEMENTARY SCHOOL,"8100 GUINEVERE DR ANNANDALE, VA 22003-1300",False,"522 - CAMELOT - 0001, 522 - CAMELOT - 0000",False,-77.22516,38.84829,
CAMERON ELEMENTARY SCHOOL,"3434 CAMPBELL DR ALEXANDRIA, VA 22303-1110",False,402 - CAMERON - 0000,False,-77.09143,38.80028,
CANTERBURY WOODS ELEM SCHOOL,"4910 WILLET DR ANNANDALE, VA 22003-3953",False,113 - CANTERBURY - 0000,False,-77.24963,38.82057,
CARDINAL FOREST ELEM SCHOOL,"8600 FORRESTER BLVD SPRINGFIELD, VA 22152-1012",False,128 - CARDINAL - 0000,False,-77.24025,38.79207,
CEDAR LANE SCHOOL,"101 CEDAR LN SW VIENNA, VA 22180-6702",False,216 - VIENNA #4 - 0000,False,-77.24608,38.88397,
CENTRE RIDGE ELEMENTARY SCHOOL,"14400 NEW BRADDOCK RD CENTREVILLE, VA 20121-1605",False,901 - CENTRE RIDGE - 0000,False,-77.44573,38.82586,
CENTREVILLE ELEMENTARY SCHOOL,"14330 GREEN TRAILS BOULEVARD CENTREVILLE , VA 20121",False,933 - COMPTON - 0001,False,-77.44028,38.82034,
CENTREVILLE ELEMENTARY SCHOOL,"14330 GREEN TRAILS BLVD CENTREVILLE, VA 20121-3879",False,919 - GREEN TRAILS - 0000,False,-77.44028,38.82034,
CENTREVILLE HIGH SCHOOL,"6001 UNION MILL RD CLIFTON, VA 20124-1128",False,849 - NEWGATE - 0000,False,-77.41085,38.82456,
CHANTILLY HIGH SCHOOL,"4201 STRINGFELLOW ROAD CHANTILLY, VA 20151",False,920 - CHANTILLY - 0000,False,-77.40654,38.88026,
CHERRY RUN ELEMENTARY SCHOOL,"9732 IRONMASTER DR BURKE, VA 22015-4174",False,825 - CHERRY RUN - 0000,False,-77.28451,38.76791,
CHESTERBROOK ELEMENTARY SCHOOL,"1753 KIRBY RD MCLEAN, VA 22101-4817",False,305 - EL NIDO - 0000,False,-77.15508,38.91825,
CHURCH OF THE GOOD SHEPHERD,"2351 HUNTER MILL ROAD VIENNA, VA 22181",False,929 - DIFFICULT RUN - 0000,False,-77.30188,38.9091,
CHURCHILL ROAD ELEM SCHOOL,"7100 CHURCHILL RD MCLEAN, VA 22101-2609",False,303 - CHURCHILL - 0000,False,-77.18879,38.94652,
CLEARVIEW ELEMENTARY SCHOOL,"12635 BUILDERS RD HERNDON, VA 20170-2924",False,321 - CLEARVIEW - 0000,False,-77.39103,38.9833,
CLERMONT ELEMENTARY SCHOOL,"5720 CLERMONT DR ALEXANDRIA, VA 22310-1403",False,423 - CLERMONT - 0000,False,-77.11083,38.79403,
COATES ELEMENTARY SCHOOL,"2480 RIVER BIRCH ROAD HERNDON, VA 20171",False,332 - COATES - 0000,False,-77.41919,38.95203,
COLVIN RUN ELEMENTARY SCHOOL,"1400 TRAP RD VIENNA, VA 22182-1641",False,323 - SHOUSE - 0000,False,-77.26485,38.94664,
COMMONS COMMUNITY CENTER,"5701 ROBERTS PARKWAY BURKE, VA 22015",False,127 - BURKE CENTRE - 0000,False,-77.30208,38.79529,
COOPER MIDDLE SCHOOL,"977 BALLS HILL RD MCLEAN, VA 22101",False,304 - COOPER - 0000,False,-77.19228,38.95224,
CRESTWOOD ELEMENTARY SCHOOL,"6010 HANOVER AVE SPRINGFIELD, VA 22150-3837",False,415 - CRESTWOOD - 0000,False,-77.19443,38.78699,
CROSSFIELD ELEMENTARY SCHOOL,"2791 FOXMILL ROAD HERNDON, VA 22171",False,914 - VALE - 0001,False,-77.36214,38.91496,
CUB RUN ELEMENTARY SCHOOL,"5301 SULLY STATION DR CENTREVILLE, VA 20120-1367",False,903 - CUB RUN - 0000,False,-77.45839,38.86522,
CUB RUN RECREATION CENTER,"4630 STONECROFT BLVD CHANTILLY, VA 20151",False,904 - STONECROFT - 0000,False,-77.46849,38.88993,
CUNNINGHAM PARK ELEM SCHOOL,"1001 PARK ST SE VIENNA, VA 22180-6606",False,213 - VIENNA #1 - 0000,False,-77.25012,38.89234,
Centreville Regional Library,"14200 SAINT GERMAIN DRIVE CENTREVILLE, VA 20121",False,924 - SPINDLE - 0000,False,-77.44097,38.83749,
Centreville United Methodist Church,"6400 OLD CENTREVILLE RD CENTREVILLE, VA 20121",False,925 - OLD MILL - 0000,False,-77.43999,38.82556,
Chesterbrook Elementary School,"1753 KIRBY RD MCLEAN , VA 22101",False,302 - CHESTERBROOK - 0000,False,-77.15508,38.91825,
Christ Church,"7600 OX ROAD FAIRFAX STATION, VA 22039",False,845 - FOUNTAINHEAD - 0000,False,-77.29797,38.74982,
DEER PARK ELEMENTARY SCHOOL,"15109 CARLBERN DR CENTREVILLE, VA 20120-1432",False,921 - DEER PARK - 0000,False,-77.47114,38.85528,
DOGWOOD ELEMENTARY SCHOOL,"12300 GLADE DR RESTON, VA 20191-1107",False,220 - DOGWOOD - 0000,False,-77.37102,38.94267,
EAGLE VIEW ELEMENTARY SCHOOL,"4500 DIXIE HILL ROAD FAIRFAX, VA 22030",False,131 - EAGLE VIEW - 0000,False,-77.36304,38.85142,
EDISON HIGH SCHOOL,"5801 FRANCONIA ROAD ALEXANDRIA, VA 22310",False,404 - FRANCONIA - 0000,False,-77.13396,38.78211,
ELKS LODGE,"8421 ARLINGTON BLVD FAIRFAX, VA 22031-4601",False,718 - PINE RIDGE - 0000,False,-77.23737,38.86475,
Epiphany Episcopal Church,"3301 HIDDEN MEADOW DR HERNDON, VA 20171",False,908 - HIDDEN MEADOW - 0000,False,-77.40748,38.9063,
FAIR HAVEN COMMUNITY CENTER,"2409 FORT DR ALEXANDRIA, VA 22303-2003",False,607 - HUNTINGTON - 0000,False,-77.07288,38.78664,
FAIRFAX CIRCLE BAPTIST CHURCH,"3110 CHICHESTER LANE FAIRFAX, VA 22031",False,707 - MANTUA - 0000,False,-77.24846,38.86441,
FAIRFAX COUNTY GOVERNMENT CTR,"12000 GOVERNMENT CENTER PKWY RM 2 FAIRFAX, VA 22035-0001",False,132 - MONUMENT - 0000,False,-77.35658,38.85408,
FAIRFAX VILLA ELEM SCHOOL,"10900 SANTA CLARA DR FAIRFAX, VA 22030-5386",False,121 - VILLA - 0000,False,-77.32318,38.84071,
FAIRHILL ELEM SCHOOL,"3001 CHICHESTER LN FAIRFAX, VA 22031-2113",False,714 - WALKER - 0000,False,-77.24742,38.86992,
FAIRVIEW ELEMENTARY SCHOOL,"5815 OX RD FAIRFAX STATION, VA 22039-1430",False,105 - FAIRVIEW - 0000,False,-77.32481,38.79752,
FARM PARK VISITOR CENTER,"2739 W OX RD HERNDON, VA 20171-3807",False,235 - FRYING PAN - 0000,False,-77.40524,38.93473,
FLINT HILL ELEMENTARY SCHOOL,"2444 FLINT HILL RD VIENNA, VA 22181-5447",False,202 - FLINT HILL - 0001,False,-77.28507,38.8953,
FLORIS ELEMENTARY SCHOOL,"2708 CENTREVILLE RD HERNDON, VA 20171-3512",False,203 - FLORIS - 0000,False,-77.41452,38.93562,
FOREST EDGE ELEMENTARY SCHOOL,"1501 BECONTREE LN RESTON, VA 20190-4001",False,209 - RESTON #2 - 0000,False,-77.32966,38.96903,
FORESTDALE ELEMENTARY SCHOOL,"6530 ELDER ST SPRINGFIELD, VA 22150",False,403 - FORESTDALE - 0000,False,-77.17,38.77623,
FORESTVILLE ELEMENTARY SCHOOL,"1085 UTTERBACK STORE RD GREAT FALLS, VA 22066-1520",False,329 - SENECA - 0000,False,-77.32831,38.99351,
FORT HUNT ELEM SCHOOL,"8832 LINTON LN ALEXANDRIA, VA 22308-2437",False,605 - FORT HUNT - 0000,False,-77.06634,38.71887,
FOX MILL ELEMENTARY SCHOOL,"2611 VIKING DR HERNDON, VA 20171-2420",False,229 - FOX MILL - 0000,False,-77.38233,38.92769,
FRANKLIN MIDDLE SCHOOL,"3300 LEES CORNER RD CHANTILLY, VA 22151",False,927 - ARMFIELD - 0001,False,-77.42053,38.90711,
FRANKLIN MIDDLE SCHOOL,"3300 LEES CORNER RD CHANTILLY, VA 20151-3105",False,905 - FRANKLIN - 0001,False,-77.42053,38.90711,
FRANKLIN SHERMAN ELEM SCHOOL,"6630 BRAWNER ST MCLEAN, VA 22101-4000",False,316 - SALONA #1 - 0000,False,-77.1745,38.93471,
FRANKLIN SHERMAN ELEMENTARY SCHOOL,"6630 BRAWNER STREET MCLEAN, VA 22101",False,333 - SALONA #2 - 0001,False,-77.1745,38.93471,
FRED PACKARD CENTER,"4022 HUMMER RD ANNANDALE, VA 22003-2403",False,519 - HUMMER - 0000,False,-77.21053,38.83827,
FREEDOM HILL ELEMENTARY SCHOOL,"1945 LORD FAIRFAX RD VIENNA, VA 22182-3720",False,704 - FREEDOM HILL - 0000,False,-77.22965,38.91128,
Fairfax County Registrar Office,12000 GOVERNMENT CNTR PKWY STE 323 FAIRFAX VA 22035,True,Locality wide location,False,-77.35658,38.85408,
GARFIELD ELEMENTARY SCHOOL,"7101 OLD KEENE MILL RD SPRINGFIELD, VA 22150-3536",False,417 - GARFIELD - 0000,False,-77.18985,38.77787,
GLEN FOREST ELEM SCHOOL,"5829 GLEN FOREST DR FALLS CHURCH, VA 22041-2512",False,505 - GLEN FOREST - 0000,False,-77.12834,38.855,
GMU-MERTEN HALL,"4441 GEORGE MASON BLVD FAIRFAX, VA 22030",False,134 - UNIVERSITY - 0000,False,-77.30766,38.835,
GRAHAM ROAD ELEMENTARY SCHOOL,"2831 GRAHAM RD FALLS CHURCH, VA 22042-1836",False,705 - GRAHAM - GREENWAY - 0000,False,-77.19084,38.87662,
GREAT FALLS ELEMENTARY SCHOOL,"701 WALKER RD GREAT FALLS, VA 22066-2801",False,306 - GREAT FALLS - 0000,False,-77.2925,39.00151,
GREAT FALLS LIBRARY,"9830 GEORGETOWN PIKE GREAT FALLS, VA 22066-2634",False,328 - HICKORY - 0000,False,-77.28694,38.99833,
GREAT FALLS UNITED METHODIST CH,"10100 GEORGETOWN PIKE GREAT FALLS, VA 22066-2823",False,322 - FORESTVILLE - 0000,False,-77.29327,38.99899,
GREEN SPRING GARDEN PARK,"4603 GREEN SPRING RD ALEXANDRIA, VA 22312",False,507 - LINCOLNIA - 0000,False,-77.15606,38.82345,
GREENBRIAR EAST ELEM SCHOOL,"13006 POINT PLEASANT DR FAIRFAX, VA 22033-3519",False,846 - GREENBRIAR EAST - 0000,False,-77.39516,38.87148,
GREENBRIAR WEST ELEM SCHOOL,"13300 POPLAR TREE RD FAIRFAX, VA 22033-3430",False,847 - GREENBRIAR WEST - 0000,False,-77.40538,38.8763,
GREENSPRING CONFERENCE CENTER,"7430 SPRING VILLAGE DR SPRINGFIELD, VA 22150-4446",False,426 - GREENSPRING - 0000,False,-77.20212,38.76773,
GROVETON ELEMENTARY SCHOOL,"6900 HARRISON LANE ALEXANDRIA, VA 22306",False,405 - GROVETON - 0000,False,-77.09484,38.76796,
GUNSTON ELEMENTARY SCHOOL,"10100 GUNSTON RD LORTON, VA 22079-2208",False,616 - GUNSTON - 0000,False,-77.20971,38.68484,
Gatehouse Admin Center,"8115 GATEHOUSE ROAD FALLS CHURCH, VA 22042",False,723 - GALLOWS EAST - 0000,False,-77.2239,38.8684,
Glen Forest Elementary School,"5829 GLEN FOREST DR FALLS CHURCH, VA 22041",False,514 - CROSSROADS - 0000,False,-77.12834,38.855,
HAYCOCK ELEMENTARY SCHOOL,"6616 HAYCOCK RD FALLS CHURCH, VA 22043-1732",False,307 - HAYCOCK - 0000,False,-77.17359,38.90409,
HAYFIELD ELEMENTARY SCHOOL,"7633 TELEGRAPH RD ALEXANDRIA, VA 22315-3824",False,406 - HAYFIELD - 0001,False,-77.1407,38.74883,
HAYFIELD SECONDARY SCHOOL,"7630 TELEGRAPH RD ALEXANDRIA, VA 22315",False,421 - KINGSTOWNE - 0000,False,-77.14426,38.75017,
HAYFIELD SECONDARY SCHOOL,"7630 TELEGRAPH RD ALEXANDRIA, VA 22315-3821",False,420 - VILLAGES - 0000,False,-77.14426,38.75017,
HERNDON COMMUNITY CENTER,"814 FERNDALE AVE HERNDON, VA 20170-3431",False,320 - HERNDON #2 - 0000,False,-77.39363,38.97275,
HERNDON ELEMENTARY SCHOOL,"630 DRANESVILLE RD HERNDON, VA 20170-3307",False,319 - HERNDON #1 - 0000,False,-77.37666,38.97594,
HERNDON HIGH SCHOOL,"700 BENNETT ST HERNDON, VA 20170-3104",False,327 - SUGARLAND - 0000,False,-77.37308,38.9874,
HERNDON MIDDLE SCHOOL,"901 LOCUST ST HERNDON, VA 20170-4948",False,324 - HERNDON #3 - 0000,False,-77.39147,38.96802,
HOLLIN HALL CENTER,"1500 SHENANDOAH RD ALEXANDRIA, VA 22308-1120",False,"606 - HOLLIN HALL - 0001, 606 - HOLLIN HALL - 0000",False,-77.05838,38.74216,
HOLLIN MEADOWS ELEM SCHOOL,"2310 NORDOK PL ALEXANDRIA, VA 22306-2533",False,608 - KIRKSIDE - 0000,False,-77.07261,38.75054,
HOLMES MIDDLE SCHOOL,"6525 MONTROSE STREET ALEXANDRIA, VA 22312",False,"516 - WEYANOKE - 0000, 516 - WEYANOKE - 0001",False,-77.16321,38.81428,
HUNT VALLEY ELEMENTARY SCHOOL,"7107 SYDENSTRICKER ROAD SPRINGFIELD, VA 22152",False,807 - HUNT VALLEY - 0001,False,-77.24348,38.76217,
HUNTERS WOODS ELEM SCHOOL,"2401 COLTS NECK RD RESTON, VA 20191-2608",False,221 - HUNTERS WOODS - 0000,False,-77.36135,38.93254,
HUNTINGTON COMMUNITY CENTER,"5751 LIBERTY DR ALEXANDRIA, VA 22303-1513",False,621 - GROSVENOR - 0000,False,-77.0683,38.79449,
HUTCHISON ELEMENTARY SCHOOL,"13209 PARCHER AVE HERNDON, VA 20170-4333",False,325 - HUTCHISON - 0000,False,-77.4069,38.96136,
HYBLA VALLEY ELEMENTARY SCHOOL,"3415 LOCKHEED BOULEVARD ALEXANDRIA, VA 22306",False,429 - HYBLA VALLEY - 0001,False,-77.09026,38.75873,
Herrity Building,"12055 GOVERNMENT CENTER PKWY FAIRFAX, VA 22035",False,844 - CENTERPOINTE - 0001,False,-77.36308,38.85673,
Hollin Meadows Elementary School,"2310 NORDOK PL ALEXANDRIA, VA 22306",False,609 - MARLAN - 0000,False,-77.07261,38.75054,
IRVING MIDDLE SCHOOL,"8100 OLD KEENE MILL RD SPRINGFIELD, VA 22152-1842",False,827 - IRVING - 0000,False,-77.22525,38.78164,
ISLAND CREEK ELEMENTARY SCHOOL,"7855 MORNING VIEW LN ALEXANDRIA, VA 22315-5012",False,427 - ISLAND CREEK - 0000,False,-77.1682,38.74562,
JAMES LEE COMMUNITY CENTER,"2855 ANNANDALE RD # A FALLS CHURCH, VA 22042-2260",False,703 - FORT BUFFALO - 0000,False,-77.174,38.87498,
JEFFERSON HIGH SCHOOL,"6560 BRADDOCK RD ALEXANDRIA, VA 22312-2206",False,523 - POE - 0000,False,-77.16834,38.81807,
JUSTICE HIGH SCHOOL,"3301 PEACE VALLEY LN FALLS CHURCH, VA 22044-1508",False,511 - RAVENWOOD - 0000,False,-77.14924,38.85664,
John R Lewis High School,"6540 FRANCONIA RD SPRINGFIELD, VA 22150-1413",False,409 - PIONEER - 0000,False,-77.16937,38.77914,
KEENE MILL ELEMENTARY SCHOOL,"6310 BARDU AVE SPRINGFIELD, VA 22152-1921",False,129 - KEENE MILL - 0000,False,-77.22174,38.78101,
KENT GARDENS ELEMENTARY SCHOOL,"1717 MELBOURNE DR MCLEAN, VA 22101-5133",False,318 - WESTMORELAND - 0000,False,-77.17557,38.92149,
KEY MIDDLE SCHOOL,"6402 FRANCONIA ROAD ALEXANDRIA, VA 22310",False,422 - VAN DORN - 0000,False,-77.16184,38.77959,
KILMER MIDDLE SCHOOL,"8100 WOLFTRAP RD VIENNA, VA 22182-5156",False,733 - KILMER - 0000,False,-77.22528,38.90407,
KINGS GLEN ELEMENTARY SCHOOL,"5401 DANBURY FOREST DR SPRINGFIELD, VA 22151",False,133 - DANBURY - 0000,False,-77.23468,38.80384,
KINGS PARK ELEMENTARY SCHOOL,"5400 HARROW WAY SPRINGFIELD, VA 22151-1327",False,108 - KINGS PARK - 0001,False,-77.24159,38.80484,
KINGSTOWNE LIBRARY,"6500 LANDSDOWNE CTR ALEXANDRIA, VA 22315-5011",False,630- ARMY - 0001,False,-77.16459,38.74008,
Knights of Columbus #5998,"8592 RICHMOND HWY ALEXANDRIA, VA 22309",False,627 - WOODLAWN - 0000,False,-77.11701,38.72514,
LAKE ANNE ELEMENTARY SCHOOL,"11510 N SHORE DR RESTON, VA 20190-4316",False,208 - RESTON #1 - 0000,False,-77.34671,38.96512,
LAKE BRADDOCK SEC SCHOOL,"9200 BURKE LAKE RD BURKE, VA 22015-1682",False,118 - LAKE BRADDOCK - 0000,False,-77.26602,38.80368,
LAKE BRADDOCK SEC SCHOOL,"9200 BURKE LAKE RD BURKE, VA 22015-1682",False,125 - SIGNAL HILL - 0000,False,-77.26602,38.80368,
LANE ELEMENTARY SCHOOL,"7137 BEULAH ST ALEXANDRIA, VA 22315-3501",False,"419 - LANE - 0001, 419 - LANE - 0000",False,-77.15741,38.76099,
LANGLEY HIGH SCHOOL,"6520 GEORGETOWN PIKE MCLEAN, VA 22101-2222",False,301 - CHAIN BRIDGE - 0000,False,-77.1664,38.94968,
LANGLEY HIGH SCHOOL,"6520 GEORGETOWN PIKE MCLEAN, VA 22101-2222",False,311 - LANGLEY - 0000,False,-77.1664,38.94968,
LAUREL RIDGE ELEMENTARY SCHOOL,"10110 COMMONWEALTH BLVD FAIRFAX, VA 22032-2704",False,119 - LAUREL - 0000,False,-77.29564,38.81418,
LEES CORNER ELEMENTARY SCHOOL,"13500 HOLLINGER AVENUE FAIRFAX, VA 22033",False,930 - LEES CORNER - 0000,False,-77.41171,38.89074,
LEIS CENTER AT WALNUT HILL,"7423 CAMP ALGER AVE FALLS CHURCH, VA 22042-3608",False,525 - WALNUT HILL - 0000,False,-77.20323,38.85625,
LEMON ROAD ELEMENTARY SCHOOL,"7230 IDYLWOOD RD FALLS CHURCH, VA 22043-2714",False,317 - WESTHAMPTON - 0000,False,-77.19497,38.9039,
LITTLE RUN ELEMENTARY SCHOOL,"4511 OLLEY LANE FAIRFAX, VA 22032",False,109 - LITTLE RUN - 0000,False,-77.26704,38.8261,
LIVING SAVIOR LUTHERAN CHURCH,"5500 OX RD FAIRFAX STATION, VA 22039-1020",False,841 - POPES HEAD - 0001,False,-77.32755,38.80808,
LONDON TOWNE ELEMENTARY SCHOOL,"6100 STONE RD CENTREVILLE, VA 20120-1635",False,910 - LONDON TOWNE - 0000,False,-77.45707,38.84017,
LONGFELLOW MIDDLE SCHOOL,"2000 WESTMORELAND ST FALLS CHURCH, VA 22043-1721",False,312 - LONGFELLOW - 0000,False,-77.17494,38.90946,
LORTON STATION ELEM SCHOOL,"9298 LEWIS CHAPEL RD LORTON, VA 22079-1960",False,622 - LORTON STATION - 0000,False,-77.21851,38.7066,
LUTHER JACKSON MIDDLE SCHOOL,"3020 GALLOWS RD FALLS CHURCH, VA 22042-1010",False,721 - MERRIFIELD - 0000,False,-77.22932,38.86819,
LYNBROOK ELEMENTARY SCHOOL,"5801 BACKLICK RD SPRINGFIELD, VA 22150-3219",False,418 - LYNBROOK - 0000,False,-77.18614,38.79284,
Laurel Hill Elementary School,"8390 LAUREL CREST DRIVE LORTON, VA 22079",False,628 - LAUREL HILL - 0000,False,-77.23324,38.71741,
Lewinsville Senior Center,"1613 GREAT FALLS ST MCLEAN, VA 22101",False,314 - MCLEAN - 0000,False,-77.19479,38.927,
Liberty Middle School,"6801 UNION MILL RD CLIFTON, VA 20124",False,"803 - CLIFTON - 0001, 803 - CLIFTON - 0000",False,-77.41757,38.80542,
Lorton Station Elementary School,"9298 LEWIS CHAPEL RD LORTON, VA 22079-2124",False,"617 - LORTON - 0001, 617 - LORTON - 0000",False,-77.21851,38.7066,
MADISON HIGH SCHOOL,"2500 JAMES MADISON DRIVE VIENNA, VA 22180",False,204 - MADISON - 0000,False,-77.27913,38.89595,
MADISON HIGH SCHOOL,"2500 JAMES MADISON DR VIENNA, VA 22181-5536",False,218 - VIENNA #6 - 0000,False,-77.27913,38.89595,
MANTUA ELEMENTARY SCHOOL,"9107 HORNER CT FAIRFAX, VA 22031-3838",False,711 - PRICE - 0000,False,-77.25955,38.84735,
MARSHALL HIGH SCHOOL,"7731 LEESBURG PIKE FALLS CHURCH, VA 22043-2405",False,708 - MARSHALL - 0000,False,-77.21275,38.905,
MCLEAN HIGH SCHOOL,"1633 DAVIDSON RD MCLEAN, VA 22101-4305",False,310 - KIRBY - 0000,False,-77.18442,38.9246,
MCNAIR ELEMENTARY SCHOOL,"2499 THOMAS JEFFERSON DR HERNDON, VA 20171-4542",False,237 - MCNAIR - 0000,False,-77.40466,38.94627,
MOSBY WOODS ELEMENTARY SCHOOL,"9819 FIVE OAKS RD FAIRFAX, VA 22031-1026",False,709 - MOSBY - 0000,False,-77.28615,38.86939,
MOTT COMMUNITY CENTER,"12111 BRADDOCK ROAD FAIRFAX, VA 22030",False,804 - COLCHESTER - 0000,False,-77.36389,38.82904,
MT EAGLE ELEMENTARY SCHOOL,"6116 N KINGS HWY ALEXANDRIA, VA 22303-2417",False,408 - MOUNT EAGLE - 0000,False,-77.07848,38.78484,
MT VERNON WOODS ELEM SCHOOL,"4015 FIELDING ST ALEXANDRIA, VA 22309-1403",False,413 - FAIRFIELD - 0000,False,-77.10042,38.74257,
Marshall Road Elementary School,"730 MARSHALL RD SOUTHWEST VIENNA, VA 22180",False,729 - NOTTOWAY - 0000,False,-77.26647,38.8821,
Mason Crest Elementary School,"3705 CREST DRIVE ANNANDALE, VA 22003",False,508 - MASONVILLE - 0000,False,-77.1965,38.84278,
Michael R. Frey Animal Shelter,"4500 WEST OX ROAD FAIRFAX , VA 22030",False,802 - CEDAR LAKE - 0000,False,-77.37238,38.85627,
Mountain View High School,"5775 SPINDLE COURT CENTREVILLE, VA 20121",False,918 - CENTREVILLE - 0000,False,-77.42582,38.83801,
Mt Vernon Woods Elementary School,"4015 FIELDING ST ALEXANDRIA, VA 22309",False,428 - PINEWOOD - 0000,False,-77.10042,38.74257,
N SPRINGFIELD ELEM SCHOOL,"7602 HEMING CT SPRINGFIELD, VA 22151-2618",False,110 - NORTH SPRINGFIELD - 0000,False,-77.20831,38.80184,
NANCY F SPRAGUE TECH CENTER,"4414 HOLBORN AVE ANNANDALE, VA 22003-4551",False,104 - CHAPEL - 0000,False,-77.23647,38.82671,
NAVY ELEMENTARY SCHOOL,"3500 W OX RD FAIRFAX, VA 22033-1702",False,911 - NAVY - 0000,False,-77.37883,38.88915,
NEWINGTON FOREST ELEM SCHOOL,"8001 NEWINGTON FOREST AVE SPRINGFIELD, VA 22153-2439",False,618 - NEWINGTON - 0000,False,-77.24034,38.73921,
NORTH COUNTY HUMAN SERVICES BUILDING,"1850 CAMERON GLEN DR RESTON, VA 20190",False,238 - CAMERON GLEN - 0000,False,-77.35887,38.96551,
Newington DVS Facility,"8201 CINDER BED ROAD LORTON, VA 22079",False,619 - BELVOIR - 0002,False,-77.18271,38.73781,
OAK HILL ELEMENTARY SCHOOL,"3210 KINROSS CIRCLE HERNDON, VA 20171",False,909 - OAK HILL - 0001,False,-77.40946,38.9127,
OAK MARR RECREATION CENTER,"3200 JERMANTOWN RD OAKTON, VA 22124-2403",False,732 - OAK MARR - 0000,False,-77.31685,38.87614,
OAK VIEW ELEMENTARY SCHOOL,"5004 SIDEBURN RD FAIRFAX, VA 22032-2636",False,120 - SIDEBURN - 0000,False,-77.30989,38.81883,
OAKTON HIGH SCHOOL,"2900 SUTTON RD VIENNA, VA 22181-6109",False,701 - BLAKE - 0000,False,-77.28218,38.87845,
ORANGE HUNT ELEM SCHOOL,"6820 SYDENSTRICKER RD SPRINGFIELD, VA 22152-2642",False,824 - ORANGE - 0000,False,-77.25543,38.76595,
Olde Creek Elementary School,"9524 OLD CREEK DR FAIRFAX, VA 22032",False,114 - OLDE CREEK - 0000,False,-77.27737,38.83047,
PARISH HALL ST ALBANS CHURCH,"6800 COLUMBIA PIKE ANNANDALE, VA 22003-3431",False,"513 - SAINT ALBANS - 0001, 513 - SAINT ALBANS - 0000",False,-77.17921,38.8364,
PARKLAWN ELEMENTRY SCHOOL,"4116 BRADDOCK RD ALEXANDRIA, VA 22312-1018",False,510 - PARKLAWN - 0000,False,-77.15386,38.83325,
PENDERBROOK COMMUNITY CENTER,"3704 GOLF TRAIL LN FAIRFAX, VA 22033-2603",False,730 - PENDERBROOK - 0000,False,-77.35967,38.87319,
PIMMIT HILLS CENTER,"7510 LISLE AVE FALLS CHURCH, VA 22043-1050",False,315 - PIMMIT - 0000,False,-77.20499,38.91661,
PINE SPRING ELEMENTARY SCHOOL,"7607 WILLOW LN FALLS CHURCH, VA 22042-1328",False,710 - PINE SPRING - 0000,False,-77.20926,38.87071,
POE MIDDLE SCHOOL,"7000 CINDY LN ANNANDALE, VA 22003-5900",False,521 - BROOK HILL - 0000,False,-77.18557,38.82061,
POPLAR TREE ELEMENTARY SCHOOL,"13440 MELVILLE LN CHANTILLY, VA 20151-2463",False,928 - POPLAR TREE - 0000,False,-77.41559,38.86264,
POWELL ELEMENTARY SCHOOL,"13340 LELAND RD CENTREVILLE, VA 20120-2034",False,926 - POWELL - 0000,False,-77.40789,38.84603,
PROVIDENCE COMMITTEE MEETING ROOM,"7921 JONES BRANCH DRIVE MC LEAN, VA 22102",False,731 - TYSONS - 0000,False,-77.2173,38.92761,
PROVIDENCE COMMUNITY CENTER,"3001 VADEN DR FAIRFAX, VA 22031",False,734 - HUNTERS BRANCH - 0001,False,-77.27226,38.87314,
RACHEL CARSON MIDDLE SCHOOL,"13618 MCLEAREN ROAD HERNDON, VA 20171",False,931 - CARSON - 0000,False,-77.41933,38.92705,
RAVENSWORTH ELEMENTARY SCHOOL,"5411 NUTTING DR SPRINGFIELD, VA 22151-2006",False,115 - RAVENSWORTH - 0000,False,-77.223,38.80287,
RESTON COMMUNITY CENTER,"1609 WASHINGTON PLZ N STE A RESTON, VA 20190-4346",False,222 - RESTON #3 - 0000,False,-77.34088,38.96922,
RESTON COMMUNITY CENTER,"2310 COLTS NECK ROAD RESTON, VA 20191",False,223 - GLADE - 0000,False,-77.36053,38.93646,
RIVERSIDE ELEM SCHOOL,"8410 OLD MOUNT VERNON RD ALEXANDRIA, VA 22309-2008",False,614 - RIVERSIDE - 0000,False,-77.09454,38.73033,
ROBINSON SEC SCHOOL,"5035 SIDEBURN RD FAIRFAX, VA 22032-2637",False,123 - ROBINSON - 0000,False,-77.30491,38.81701,
ROCKY RUN MIDDLE SCHOOL,"4400 STRINGFELLOW RD CHANTILLY, VA 20151-2506",False,913 - ROCKY RUN - 0000,False,-77.41013,38.87433,
ROLLING VALLEY ELEM SCHOOL,"6703 BARNACK DR SPRINGFIELD, VA 22152-3314",False,812 - VALLEY - 0000,False,-77.23098,38.76875,
ROSE HILL ELEMENTARY SCHOOL,"6301 ROSE HILL DR ALEXANDRIA, VA 22310-2801",False,"410 - ROSE HILL - 0000, 410 - ROSE HILL - 0001",False,-77.11676,38.78218,
ROTONDA CONDOMINIOMS COMM. CTR.,"8352 GREENBORO DR MCLEAN, VA 22102",False,735 - ROTONDA - 0000,False,-77.23291,38.92827,
SAINT PETERS IN THE WOODS CHURCH,"5911 FAIRVIEW WOODS DRIVE FAIRFAX STATION, VA 22039",False,805 - FAIRFAX STATION - 0001,False,-77.32728,38.79711,
SANGSTER ELEMENTARY SCHOOL,"7420 RESERVATION DR SPRINGFIELD, VA 22153-1327",False,838 - SANGSTER - 0000,False,-77.27257,38.75508,
SARATOGA ELEM SCHOOL,"8111 NORTHUMBERLAND RD SPRINGFIELD, VA 22153-3026",False,623 - ALBAN - 0000,False,-77.21384,38.73571,
SARATOGA ELEMENTARY SCHOOL,"8111 NORTHUMBERLAND RD SPRINGFIELD, VA 22153-3026",False,626 - SARATOGA - 0000,False,-77.21384,38.73571,
SHREVEWOOD ELEM SCHOOL,"7525 SHREVE RD FALLS CHURCH, VA 22043-3204",False,712 - SHREVE - 0000,False,-77.20593,38.8889,
SILVERBROOK ELEMENTARY SCHOOL,"9350 CROSSPOINTE DR FAIRFAX STATION, VA 22039-2655",False,839 - SILVERBROOK - 0000,False,-77.26972,38.72959,
SLEEPY HOLLOW ELEM SCHOOL,"3333 SLEEPY HOLLOW RD FALLS CHURCH, VA 22044-1002",False,502 - BARCROFT - 0000,False,-77.1677,38.85577,
SOUTH LAKES HIGH SCHOOL,"11400 S LAKES DR RESTON, VA 20191-4102",False,224 - SOUTH LAKES - 0000,False,-77.34034,38.93304,
SOUTH RUN RECREATION CENTER,"7550 RESERVATION DR SPRINGFIELD, VA 22153-1356",False,850 - SOUTH RUN - 0000,False,-77.27388,38.74961,
SPRING HILL ELEMENTARY SCHOOL,"8201 LEWINSVILLE RD MCLEAN, VA 22102",False,331 - SPRING HILL - 0000,False,-77.22839,38.93903,
SPRING HILL RECREATION CENTER,"1239 SPRING HILL RD MCLEAN, VA 22102-2307",False,309 - KENMORE - 0000,False,-77.22875,38.94248,
ST ANDREWS EPISCOPAL CHURCH,"6509 SYDENSTRICKER RD BURKE, VA 22015-4210",False,811 - POHICK - 0000,False,-77.26431,38.77493,
ST JOHNS UNITED METHODIST CH,"5312 BACKLICK RD SPRINGFIELD, VA 22151-3313",False,527 - EDSALL - 0000,False,-77.18532,38.80548,
ST PAUL CHUNG CATHOLIC CHURCH,"4712 RIPPLING POND DR FAIRFAX, VA 22033-5081",False,843 - FAIR LAKES - 0000,False,-77.4043,38.86155,
ST. MARKS EPISCOPAL CHURCH,"6744 S. KINGS HWY ALEXANDRIA, VA 22306",False,424 - HUNTLEY - 0000,False,-77.1015,38.77213,
STONE MIDDLE SCHOOL,"5500 SULLY PARK DRIVE CENTREVILLE, VA 20120",False,932 - STONE SOUTH - 0001,False,-77.45496,38.85767,
STONE MIDDLE SCHOOL,"5500 SULLY PARK DR CENTREVILLE, VA 20120-2979",False,917 - STONE NORTH - 0000,False,-77.45496,38.85767,
STRATFORD LANDING ELEM SCHOOL,"8484 RIVERSIDE RD ALEXANDRIA, VA 22308-1545",False,611 - STRATFORD - 0000,False,-77.06877,38.72824,
SUNRISE VALLEY ELEM SCHOOL,"10824 CROSS SCHOOL RD RESTON, VA 20191-5108",False,227 - SUNRISE VALLEY - 0000,False,-77.32097,38.94086,
SYDENSTRICKER UNITED METHODIST CHURCH,"8508 HOOES ROAD SPRINGFIELD, VA 22153",False,806 - SYDENSTRICKER - 0000,False,-77.23957,38.75631,
Skyline Plaza,"3703 S. GEORGE MASON DRIVE FALLS CHURCH, VA 22041",False,509 - PLAZA - 0000,False,-77.11431,38.84331,
South County High School,"8501 SILVERBROOK RD LORTON, VA 22079-3015",False,629 - SOUTH COUNTY - 0000,False,-77.23854,38.71743,
South Lakes High School,"11400 SOUTH LAKES DR RESTON, VA 20191",False,225 - HUGHES - 0000,False,-77.34034,38.93304,
St Thomas a Becket Catholic Church,"1421 WIEHLE AV RESTON, VA 20190",False,233 - NORTH POINT - 0000,False,-77.33253,38.97191,
TERRA CENTRE ELEMENTARY SCHOOL,"6000 BURKE CENTRE PKWY BURKE, VA 22015-3701",False,130 - TERRA CENTRE - 0000,False,-77.29733,38.78535,
THOREAU MIDDLE SCHOOL,"2505 CEDAR LN VIENNA, VA 22180-6812",False,720 - THOREAU - 0000,False,-77.23957,38.88856,
THREE SKYLINE PLACE,"5201 LEESBURG PIKE FALLS CHURCH, VA 22041",False,520 - SKYLINE - 0000,False,-77.11924,38.84366,
TIMBER LANE ELEM SCHOOL,"2737 WEST STREET FALLS CHURCH, VA 22046-3702",False,713 - TIMBER LANE - 0000,False,-77.19776,38.87971,
The Capital Church,"10233 LEESBURG PIKE VIENNA, VA 22182",False,240 - COLVIN - 0000,False,-77.30309,38.97183,
UNITARIAN UNIVERSALIST CHURCH,"2709 HUNTER MILL RD OAKTON, VA 22124-1614",False,727 - OAKTON - 0000,False,-77.30197,38.89321,
VIENNA Community Center,"120 CHERRY ST, SE VIENNA, VA 22180",False,214 - VIENNA #2 - 0000,False,-77.26054,38.90072,
VIRGINIA HILLS CENTER,"6520 DIANA LN ALEXANDRIA, VA 22310-3012",False,"411 - VIRGINIA HILLS - 0000, 411 - VIRGINIA HILLS - 0001",False,-77.10227,38.77437,
VIRGINIA RUN ELEMENTARY SCHOOL,"15450 MARTINS HUNDRED DR CENTREVILLE, VA 20120-1117",False,915 - VIRGINIA RUN - 0000,False,-77.48659,38.85241,
Virginia DOT Building,"4975 ALLIANCE DRIVE FAIRFAX, VA 22033",False,848 - FAIR OAKS - 0000,False,-77.37447,38.84935,
WAKEFIELD FOREST ELEM SCHOOL,"4011 IVA LN FAIRFAX, VA 22032-1502",False,116 - WAKEFIELD - 0000,False,-77.24798,38.8343,
WAPLES MILL ELEMENTARY SCHOOL,"11509 WAPLES MILL RD OAKTON, VA 22124-2107",False,916 - WAPLES MILL - 0000,False,-77.34474,38.87642,
WASHINGTON MILL ELEM SCHOOL,"9100 CHERRYTREE DR ALEXANDRIA, VA 22309-2933",False,613 - WESTGATE - 0000,False,-77.10473,38.70993,
WAYNEWOOD ELEMENTARY SCHOOL,"1205 WAYNEWOOD BLVD ALEXANDRIA, VA 22308-1843",False,612 - WAYNEWOOD - 0000,False,-77.05586,38.72514,
WEST POTOMAC HIGH SCHOOL,"6500 QUANDER RD ALEXANDRIA, VA 22307-1008",False,601 - BELLE HAVEN - 0000,False,-77.073,38.77353,
WEST SPRINGFIELD ELEM SCHOOL,"6802 DELAND DR SPRINGFIELD, VA 22152-3009",False,840 - WEST SPRINGFIELD - 0000,False,-77.21905,38.76912,
WEST SPRINGFIELD HIGH SCHOOL,"6100 ROLLING RD SPRINGFIELD, VA 22152-1515",False,801 - BURKE - 0000,False,-77.24034,38.7862,
WESTBRIAR ELEMENTARY SCHOOL,"1741 PINE VALLEY DR VIENNA, VA 22182-2340",False,219 - WESTBRIAR - 0000,False,-77.24453,38.92077,
WESTGATE ELEMENTARY SCHOOL,"7500 MAGARITY RD FALLS CHURCH, VA 22043-1010",False,726 - MAGARITY - 0000,False,-77.20481,38.91916,
WESTLAWN ELEMENTARY SCHOOL,"3200 WESTLEY RD FALLS CHURCH, VA 22042-2667",False,515 - WESTLAWN - 0000,False,-77.18347,38.86262,
WHITE OAKS ELEMENTARY SCHOOL,"6130 SHIPLETT BLVD BURKE, VA 22015-3437",False,833 - WHITE OAKS - 0000,False,-77.27022,38.78264,
WHITMAN MIDDLE SCHOOL,"2500 PARKERS LN ALEXANDRIA, VA 22306-3208",False,610 - SHERWOOD - 0000,False,-77.07411,38.74274,
WILLOW SPRINGS ELEM SCHOOL,"5400 WILLOW SPRINGS SCHOOL RD FAIRFAX, VA 22030-6300",False,851 - WILLOW SPRINGS - 0000,False,-77.3804,38.83141,
WILLSTON INSTRUCTIONAL CENTER,"6131 WILLSTON DR FALLS CHURCH, VA 22044-3002",False,517 - WILLSTON - 0000,False,-77.14883,38.87038,
WOLFTRAP ELEMENTARY SCHOOL,"1903 BEULAH RD VIENNA, VA 22182-3423",False,226 - WOLFTRAP - 0000,False,-77.26647,38.91792,
WOODBURN ELEMENTARY SCHOOL,"3401 HEMLOCK DR FALLS CHURCH, VA 22042-3311",False,717 - WOODBURN - 0000,False,-77.21357,38.8519,
WOODLEY HILLS ELEM SCHOOL,"8718 OLD MOUNT VERNON RD ALEXANDRIA, VA 22309-2014",False,"615 - WOODLEY - 0000, 615 - WOODLEY - 0001",False,-77.09629,38.71989,
WOODSON HIGH SCHOOL,"9525 MAIN ST. FAIRFAX, VA 22031",False,117 - WOODSON - 0001,False,-77.27518,38.83991,
Woodrow Wilson Library,"6101 KNOLLWOOD DR. FALLS CHURCH, VA 22041",False,506 - HOLMES #1 - 0000,False,-77.14285,38.85119,
